NORAD_CAT_ID,OBJECT_NAME,OBJECT_TYPE,EPOCH,MEAN_MOTION,ECCENTRICITY,INCLINATION,RA_OF_ASC_NODE,ARG_OF_PERICENTER,MEAN_ANOMALY,BSTAR,MEAN_MOTION_DOT,MEAN_MOTION_DDOT,TLE_LINE0,TLE_LINE1,TLE_LINE2,SEMIMAJOR_AXIS,PERIOD,APOGEE,PERIGEE,DECAYED
55655.0,STARLINK-5267,PAYLOAD,2023-10-22 22:54:34,14.98287665,0.0002564,70.0012,194.9593,268.5024,91.5841,0.00013961,1.571e-05,0.0,0 STARLINK-5267,1 55655U 23021AD  23295.95456142  .00001571  00000-0  13961-3 0  9998,2 55655  70.0012 194.9593 0002564 268.5024  91.5841 14.98287665 39154,6950.324,96.11,573.971,570.407,0.0
55655.0,STARLINK-5267,PAYLOAD,2023-10-23 03:42:57,14.98310593,0.0002672,70.001,194.4543,265.4721,94.6132,1.0675e-05,3.4e-07,0.0,0 STARLINK-5267,1 55655U 23021AD  23296.15483361  .00000034  00000-0  10675-4 0  9997,2 55655  70.0010 194.4543 0002672 265.4721  94.6132 14.98310593 38885,6950.253,96.108,573.975,570.261,0.0
55655.0,STARLINK-5267,PAYLOAD,2023-10-23 10:07:29,14.98319703,0.000252,70.0016,193.7806,277.7036,82.3837,2.0142e-06,-6.9e-07,0.0,0 STARLINK-5267,1 55655U 23021AD  23296.42187143 -.00000069  00000-0  20142-5 0  9996,2 55655  70.0016 193.7806 0002520 277.7036  82.3837 14.98319703 38925,6950.225,96.108,573.841,570.338,0.0
55655.0,STARLINK-5267,PAYLOAD,2023-10-23 19:44:17,14.98335787,0.0002835,70.0012,192.7706,272.489,87.5944,-0.00014618,-1.837e-05,0.0,0 STARLINK-5267,1 55655U 23021AD  23296.82242408 -.00001837  00000-0 -14618-3 0  9990,2 55655  70.0012 192.7706 0002835 272.4890  87.5944 14.98335787 38980,6950.175,96.107,574.01,570.07,0.0
55655.0,STARLINK-5267,PAYLOAD,2023-10-23 21:20:25,14.98336227,0.0002786,70.0009,192.6024,272.8627,87.2213,-0.00011872,-1.509e-05,0.0,0 STARLINK-5267,1 55655U 23021AD  23296.88918294 -.00001509  00000-0 -11872-3 0  9994,2 55655  70.0009 192.6024 0002786 272.8627  87.2213 14.98336227 39296,6950.174,96.107,573.975,570.102,0.0
55655.0,STARLINK-5267,PAYLOAD,2023-10-24 10:09:28,14.98371976,0.0002788,70.0011,191.2555,276.5357,83.5485,-0.00065547,-7.914e-05,0.0,0 STARLINK-5267,1 55655U 23021AD  23297.42324981 -.00007914  00000-0 -65547-3 0  9993,2 55655  70.0011 191.2555 0002788 276.5357  83.5485 14.98371976 39072,6950.063,96.104,573.866,569.99,0.0
55655.0,STARLINK-5267,PAYLOAD,2023-10-25 21:24:26,14.98333108,0.0002657,70.0007,187.5534,267.0816,93.0039,1.5438e-05,9.1e-07,0.0,0 STARLINK-5267,1 55655U 23021AD  23298.89197815  .00000091  00000-0  15438-4 0  9991,2 55655  70.0007 187.5534 0002657 267.0816  93.0039 14.98333108 39292,6950.183,96.107,573.895,570.202,0.0
55655.0,STARLINK-5267,PAYLOAD,2023-10-25 23:00:34,14.98333961,0.0002557,70.0007,187.3845,268.7415,91.3451,5.9563e-06,-2.2e-07,0.0,0 STARLINK-5267,1 55655U 23021AD  23298.95873792 -.00000022  00000-0  59563-5 0  9996,2 55655  70.0007 187.3845 0002557 268.7415  91.3451 14.98333961 39608,6950.181,96.107,573.823,570.268,0.0
55655.0,STARLINK-5267,PAYLOAD,2023-10-26 02:12:51,14.98332881,0.0002591,70.0004,187.0473,268.9384,91.1478,1.0191e-05,2.9e-07,0.0,0 STARLINK-5267,1 55655U 23021AD  23299.09225800  .00000029  00000-0  10191-4 0  9992,2 55655  70.0004 187.0473 0002591 268.9384  91.1478 14.98332881 39623,6950.184,96.107,573.85,570.248,0.0
55655.0,STARLINK-5267,PAYLOAD,2023-10-26 21:26:27,14.98332177,0.0002693,70.0002,185.0277,270.3921,89.6929,-4.9448e-05,-6.83e-06,0.0,0 STARLINK-5267,1 55655U 23021AD  23299.89337779 -.00000683  00000-0 -49448-4 0  9994,2 55655  70.0002 185.0277 0002693 270.3921  89.6929 14.98332177 39742,6950.186,96.107,573.923,570.179,0.0
55655.0,STARLINK-5267,PAYLOAD,2023-10-27 02:14:51,14.98336996,0.0002683,70.0003,184.5235,270.2978,89.7874,-1.0746e-05,-2.21e-06,0.0,0 STARLINK-5267,1 55655U 23021AD  23300.09365245 -.00000221  00000-0 -10746-4 0  9995,2 55655  70.0003 184.5235 0002683 270.2978  89.7874 14.98336996 39474,6950.171,96.107,573.901,570.172,0.0
55655.0,STARLINK-5267,PAYLOAD,2023-10-27 10:15:32,14.98330875,0.0002717,70.0003,183.6811,259.7128,100.3724,-1.3262e-05,-2.51e-06,0.0,0 STARLINK-5267,1 55655U 23021AD  23300.42745509 -.00000251  00000-0 -13262-4 0  9996,2 55655  70.0003 183.6811 0002717 259.7128 100.3724 14.98330875 39824,6950.19,96.107,573.944,570.167,0.0
55655.0,STARLINK-5267,PAYLOAD,2023-10-27 15:03:56,14.98330138,0.0002635,70.0002,183.1763,264.6174,95.4684,-3.9792e-05,-5.68e-06,0.0,0 STARLINK-5267,1 55655U 23021AD  23300.62773662 -.00000568  00000-0 -39792-4 0  9996,2 55655  70.0002 183.1763 0002635 264.6174  95.4684 14.98330138 39550,6950.192,96.107,573.889,570.226,0.0
55655.0,STARLINK-5267,PAYLOAD,2023-10-27 23:04:36,14.983305,0.0002763,70.0,182.3355,270.2033,89.8809,-3.3313e-05,-4.9e-06,0.0,0 STARLINK-5267,1 55655U 23021AD  23300.96153601 -.00000490  00000-0 -33313-4 0  9995,2 55655  70.0000 182.3355 0002763 270.2033  89.8809 14.98330500 39903,6950.191,96.107,573.977,570.136,0.0
55655.0,STARLINK-5267,PAYLOAD,2023-10-28 02:16:52,14.98329297,0.0002751,70.0001,181.999,270.4229,89.6614,-3.4663e-05,-5.07e-06,0.0,0 STARLINK-5267,1 55655U 23021AD  23301.09505708 -.00000507  00000-0 -34663-4 0  9997,2 55655  70.0001 181.9990 0002751 270.4229  89.6614 14.98329297 39925,6950.195,96.107,573.972,570.148,0.0
55655.0,STARLINK-5267,PAYLOAD,2023-10-28 19:54:21,14.98327718,0.0002663,70.0003,180.1477,268.7365,91.3489,5.8546e-06,-2.3e-07,0.0,0 STARLINK-5267,1 55655U 23021AD  23301.82941777 -.00000023  00000-0  58546-5 0  9997,2 55655  70.0003 180.1477 0002663 268.7365  91.3489 14.98327718 39736,6950.2,96.107,573.916,570.214,0.0
55655.0,STARLINK-5267,PAYLOAD,2023-10-28 23:06:34,14.9837184,0.0002803,69.9997,179.8099,269.205,90.8788,0.00046216,5.432e-05,0.0,0 STARLINK-5267,1 55655U 23021AD  23301.96289934  .00005432  00000-0  46216-3 0  9999,2 55655  69.9997 179.8099 0002803 269.2050  90.8788 14.98371840 40051,6950.064,96.104,573.877,569.98,0.0
55655.0,STARLINK-5267,PAYLOAD,2023-10-29 02:18:53,14.98336118,0.0002852,70.0003,179.4742,271.3714,88.7118,6.8148e-05,7.2e-06,0.0,0 STARLINK-5267,1 55655U 23021AD  23302.09645016  .00000720  00000-0  68148-4 0  9995,2 55655  70.0003 179.4742 0002852 271.3714  88.7118 14.98336118 39777,6950.174,96.107,574.021,570.057,0.0
55655.0,STARLINK-5267,PAYLOAD,2023-10-29 08:43:24,14.98374568,0.0002651,70.0018,178.8004,275.403,84.6826,-0.00072013,-8.685e-05,0.0,0 STARLINK-5267,1 55655U 23021AD  23302.36348309 -.00008685  00000-0 -72013-3 0  9995,2 55655  70.0018 178.8004 0002651 275.4030  84.6826 14.98374568 39817,6950.055,96.104,573.763,570.078,0.0
55655.0,STARLINK-5267,PAYLOAD,2023-10-29 21:32:30,14.9832899,0.0002637,70.0003,177.4549,271.1873,88.8984,-6.079e-06,-1.65e-06,0.0,0 STARLINK-5267,1 55655U 23021AD  23302.89757637 -.00000165  00000-0 -60790-5 0  9997,2 55655  70.0003 177.4549 0002637 271.1873  88.8984 14.98328990 39899,6950.196,96.107,573.894,570.228,0.0
55655.0,STARLINK-5267,PAYLOAD,2023-10-30 08:45:26,14.98362875,0.0002335,70.0014,176.2756,283.8449,76.245,-0.00063699,-7.691e-05,0.0,0 STARLINK-5267,1 55655U 23021AD  23303.36489000 -.00007691  00000-0 -63699-3 0  9996,2 55655  70.0014 176.2756 0002335 283.8449  76.2450 14.98362875 39969,6950.091,96.105,573.579,570.333,0.0
55655.0,STARLINK-5267,PAYLOAD,2023-10-30 21:34:31,14.98326263,0.00025,70.0008,174.9308,268.5016,91.5857,-1.6716e-05,-2.92e-06,0.0,0 STARLINK-5267,1 55655U 23021AD  23303.89897962 -.00000292  00000-0 -16716-4 0  9993,2 55655  70.0008 174.9308 0002500 268.5016  91.5857 14.98326263 40047,6950.204,96.107,573.807,570.332,0.0
55655.0,STARLINK-5267,PAYLOAD,2023-10-31 00:46:51,14.98262568,0.0002806,70.0009,174.593,264.7543,95.3296,-0.00025736,-3.157e-05,0.0,0 STARLINK-5267,1 55655U 23021AD  23304.03254332 -.00003157  00000-0 -25736-3 0  9992,2 55655  70.0009 174.5930 0002806 264.7543  95.3296 14.98262568 40065,6950.401,96.111,574.217,570.316,0.0
55655.0,STARLINK-5267,PAYLOAD,2023-10-31 08:47:27,14.98342208,0.0002946,69.9998,173.7509,270.9641,89.118,-0.00023245,-2.866e-05,0.0,0 STARLINK-5267,1 55655U 23021AD  23304.36629384 -.00002866  00000-0 -23245-3 0  9990,2 55655  69.9998 173.7509 0002946 270.9641  89.1180 14.98342208 40114,6950.155,96.106,574.068,569.973,0.0
55655.0,STARLINK-5267,PAYLOAD,2023-10-31 15:12:00,14.98329975,0.0002884,69.9996,173.0788,270.843,89.2399,4.1868e-05,4.07e-06,0.0,0 STARLINK-5267,1 55655U 23021AD  23304.63333498  .00000407  00000-0  41868-4 0  9997,2 55655  69.9996 173.0788 0002884 270.8430  89.2399 14.98329975 40456,6950.193,96.107,574.062,570.054,0.0
55655.0,STARLINK-5267,PAYLOAD,2023-10-31 21:36:32,14.98328716,0.0002763,70.0003,172.4044,269.5622,90.522,0.00015909,1.806e-05,0.0,0 STARLINK-5267,1 55655U 23021AD  23304.90037245  .00001806  00000-0  15909-3 0  9998,2 55655  70.0003 172.4044 0002763 269.5622  90.5220 14.98328716 40494,6950.197,96.107,573.982,570.142,0.0
55655.0,STARLINK-5267,PAYLOAD,2023-11-01 00:48:48,14.98331804,0.0002865,69.9998,172.0675,270.8453,89.2378,0.0001309,1.469e-05,0.0,0 STARLINK-5267,1 55655U 23021AD  23305.03389104  .00001469  00000-0  13090-3 0  9991,2 55655  69.9998 172.0675 0002865 270.8453  89.2378 14.98331804 40514,6950.187,96.107,574.044,570.061,0.0
55655.0,STARLINK-5267,PAYLOAD,2023-11-01 21:38:33,14.98323465,0.0002797,69.9999,169.88,268.2812,91.8026,-7.5612e-06,-1.83e-06,0.0,0 STARLINK-5267,1 55655U 23021AD  23305.90177999 -.00000183  00000-0 -75612-5 0  9998,2 55655  69.9999 169.8800 0002797 268.2812  91.8026 14.98323465 40347,6950.213,96.107,574.022,570.134,0.0
55655.0,STARLINK-5267,PAYLOAD,2023-11-02 08:51:29,14.98333923,0.0002831,69.9998,168.702,270.586,89.4975,-7.7767e-05,-1.021e-05,0.0,0 STARLINK-5267,1 55655U 23021AD  23306.36909575 -.00001021  00000-0 -77767-4 0  9996,2 55655  69.9998 168.7020 0002831 270.5860  89.4975 14.98333923 40410,6950.181,96.107,574.013,570.078,0.0
55655.0,STARLINK-5267,PAYLOAD,2023-11-02 21:40:34,14.98334656,0.0003035,69.9998,167.3555,271.5325,88.5486,-2.9851e-06,-1.29e-06,0.0,0 STARLINK-5267,1 55655U 23021AD  23306.90317269 -.00000129  00000-0 -29851-5 0  9999,2 55655  69.9998 167.3555 0003035 271.5325  88.5486 14.98334656 40794,6950.178,96.107,574.153,569.934,0.0
